{"type": "FeatureCollection", "features": [ {"type": "Feature", "properties": {"norad_id": 60989, "name": "SENTINEL-2C", "group": "resource", "lat": -59.047313784871356, "lon": 84.58778945821716, "alt_km": 796.8404259303152, "timestamp": "2025-12-23T16:57:12.002989+00:00", "meta": {"OBJECT_NAME": "SENTINEL-2C", "OBJECT_ID": "2024-157A", "EPOCH": "2025-12-22T16:03:33.313248", "MEAN_MOTION": 14.30821394, "ECCENTRICITY": 0.00011973, "INCLINATION": 98.5671, "RA_OF_ASC_NODE": 69.0082, "ARG_OF_PERICENTER": 95.1447, "MEAN_ANOMALY": 264.9872, "EPHEMERIS_TYPE": 0, "CLASSIFICATION_TYPE": "U", "NORAD_CAT_ID": 60989, "ELEMENT_SET_NO": 999, "REV_AT_EPOCH": 6774, "BSTAR": 7.0243627e-05, "MEAN_MOTION_DOT": 1.41e-06, "MEAN_MOTION_DDOT": 0}, "tle": {"line1": "1 60989U 24157A   25356.66913557  .00000141  00000+0  70244-4 0  9990", "line2": "2 60989  98.5671  69.0082 0001197  95.1447 264.9872 14.30821394 67740"}}, "geometry": {"type": "Point", "coordinates": [84.58778945821716, -59.047313784871356]}}, {"type": "Feature", "properties": {"norad_id": 61735, "name": "IONOSFERA-M 1", "group": "resource", "lat": -65.445352012227, "lon": 27.792580807708404, "alt_km": 823.5305130186243, "timestamp": "2025-12-23T16:57:12.003001+00:00", "meta": {"OBJECT_NAME": "IONOSFERA-M 1", "OBJECT_ID": "2024-199A", "EPOCH": "2025-12-23T07:21:24.740640", "MEAN_MOTION": 14.2271628, "ECCENTRICITY": 4.407e-05, "INCLINATION": 98.7404, "RA_OF_ASC_NODE": 227.0733, "ARG_OF_PERICENTER": 6.9709, "MEAN_ANOMALY": 353.1475, "EPHEMERIS_TYPE": 0, "CLASSIFICATION_TYPE": "U", "NORAD_CAT_ID": 61735, "ELEMENT_SET_NO": 999, "REV_AT_EPOCH": 10269, "BSTAR": 4.8243359e-05, "MEAN_MOTION_DOT": 6.4e-07, "MEAN_MOTION_DDOT": 0}, "tle": {"line1": "1 61735U 24199A   25357.30653635  .00000064  00000+0  48243-4 0  9994", "line2": "2 61735  98.7404 227.0733 0000440   6.9709 353.1475 14.22716280102698"}}, "geometry": {"type": "Point", "coordinates": [27.792580807708404, -65.445352012227]}}, {"type": "Feature", "properties": {"norad_id": 61736, "name": "IONOSFERA-M 2", "group": "resource", "lat": 67.89793772479022, "lon": -154.87639111792924, "alt_km": 808.3454698678415, "timestamp": "2025-12-23T16:57:12.003011+00:00", "meta": {"OBJECT_NAME": "IONOSFERA-M 2", "OBJECT_ID": "2024-199B", "EPOCH": "2025-12-23T06:30:00.582048", "MEAN_MOTION": 14.22718444, "ECCENTRICITY": 0.0001842, "INCLINATION": 98.7395, "RA_OF_ASC_NODE": 226.9502, "ARG_OF_PERICENTER": 97.0087, "MEAN_ANOMALY": 263.13, "EPHEMERIS_TYPE": 0, "CLASSIFICATION_TYPE": "U", "NORAD_CAT_ID": 61736, "ELEMENT_SET_NO": 999, "REV_AT_EPOCH": 10581, "BSTAR": 4.4147184e-05, "MEAN_MOTION_DOT": 5.5e-07, "MEAN_MOTION_DDOT": 0}, "tle": {"line1": "1 61736U 24199B   25357.27084007  .00000055  00000+0  44147-4 0  9991", "line2": "2 61736  98.7395 226.9502 0001842  97.0087 263.1300 14.22718444105815"}}, "geometry": {"type": "Point", "coordinates": [-154.87639111792924, 67.89793772479022]}}, {"type": "Feature", "properties": {"norad_id": 63772, "name": "BIOMASS", "group": "resource", "lat": -47.81704553068607, "lon": -6.451533480727885, "alt_km": 676.4208230393697, "timestamp": "2025-12-23T16:57:12.003021+00:00", "meta": {"OBJECT_NAME": "BIOMASS", "OBJECT_ID": "2025-090A", "EPOCH": "2025-12-23T01:11:18.929760", "MEAN_MOTION": 14.67539192, "ECCENTRICITY": 0.00011003, "INCLINATION": 98.0698, "RA_OF_ASC_NODE": 181.9089, "ARG_OF_PERICENTER": 82.234, "MEAN_ANOMALY": 277.899, "EPHEMERIS_TYPE": 0, "CLASSIFICATION_TYPE": "U", "NORAD_CAT_ID": 63772, "ELEMENT_SET_NO": 999, "REV_AT_EPOCH": 3485, "BSTAR": 0.0002248983, "MEAN_MOTION_DOT": 1.228e-05, "MEAN_MOTION_DDOT": 0}, "tle": {"line1": "1 63772U 25090A   25357.04952465  .00001228  00000+0  22490-3 0  9990", "line2": "2 63772  98.0698 181.9089 0001100  82.2340 277.8990 14.67539192 34853"}}, "geometry": {"type": "Point", "coordinates": [-6.451533480727885, -47.81704553068607]}}, {"type": "Feature", "properties": {"norad_id": 64694, "name": "GOSAT-GW (IBUKI GW)", "group": "resource", "lat": 76.29234072521415, "lon": -102.41326955679718, "alt_km": 660.6292113258842, "timestamp": "2025-12-23T16:57:12.003031+00:00", "meta": {"OBJECT_NAME": "GOSAT-GW (IBUKI GW)", "OBJECT_ID": "2025-141A", "EPOCH": "2025-12-23T06:46:38.332704", "MEAN_MOTION": 14.67565349, "ECCENTRICITY": 0.00014317, "INCLINATION": 98.0438, "RA_OF_ASC_NODE": 292.6047, "ARG_OF_PERICENTER": 84.2556, "MEAN_ANOMALY": 275.8811, "EPHEMERIS_TYPE": 0, "CLASSIFICATION_TYPE": "U", "NORAD_CAT_ID": 64694, "ELEMENT_SET_NO": 999, "REV_AT_EPOCH": 2604, "BSTAR": 0.00017570851, "MEAN_MOTION_DOT": 9.49e-06, "MEAN_MOTION_DDOT": 0}, "tle": {"line1": "1 64694U 25141A   25357.28238811  .00000949  00000+0  17571-3 0  9992", "line2": "2 64694  98.0438 292.6047 0001431  84.2556 275.8811 14.67565349 26046"}}, "geometry": {"type": "Point", "coordinates": [-102.41326955679718, 76.29234072521415]}}, {"type": "Feature", "properties": {"norad_id": 64876, "name": "IONOSFERA-M 3", "group": "resource", "lat": 62.20399031094149, "lon": -57.379160269572246, "alt_km": 813.1118484527797, "timestamp": "2025-12-23T16:57:12.003041+00:00", "meta": {"OBJECT_NAME": "IONOSFERA-M 3", "OBJECT_ID": "2025-155A", "EPOCH": "2025-12-23T06:31:10.824384", "MEAN_MOTION": 14.21443485, "ECCENTRICITY": 0.0001911, "INCLINATION": 98.5798, "RA_OF_ASC_NODE": 318.8404, "ARG_OF_PERICENTER": 42.7474, "MEAN_ANOMALY": 317.3852, "EPHEMERIS_TYPE": 0, "CLASSIFICATION_TYPE": "U", "NORAD_CAT_ID": 64876, "ELEMENT_SET_NO": 999, "REV_AT_EPOCH": 2141, "BSTAR": 5.3507482e-05, "MEAN_MOTION_DOT": 7.4e-07, "MEAN_MOTION_DDOT": 0}, "tle": {"line1": "1 64876U 25155A   25357.27165306  .00000074  00000+0  53507-4 0  9995", "line2": "2 64876  98.5798 318.8404 0001911  42.7474 317.3852 14.21443485 21410"}}, "geometry": {"type": "Point", "coordinates": [-57.379160269572246, 62.20399031094149]}}, {"type": "Feature", "properties": {"norad_id": 64877, "name": "IONOSFERA-M 4", "group": "resource", "lat": -62.95487070780014, "lon": 121.98135385252432, "alt_km": 828.5779207471851, "timestamp": "2025-12-23T16:57:12.003051+00:00", "meta": {"OBJECT_NAME": "IONOSFERA-M 4", "OBJECT_ID": "2025-155B", "EPOCH": "2025-12-23T07:21:39.845952", "MEAN_MOTION": 14.2144464, "ECCENTRICITY": 0.00013396, "INCLINATION": 98.5798, "RA_OF_ASC_NODE": 318.7938, "ARG_OF_PERICENTER": 53.3725, "MEAN_ANOMALY": 306.7576, "EPHEMERIS_TYPE": 0, "CLASSIFICATION_TYPE": "U", "NORAD_CAT_ID": 64877, "ELEMENT_SET_NO": 999, "REV_AT_EPOCH": 2141, "BSTAR": 5.1144422e-05, "MEAN_MOTION_DOT": 6.9e-07, "MEAN_MOTION_DDOT": 0}, "tle": {"line1": "1 64877U 25155B   25357.30671118  .00000069  00000+0  51144-4 0  9992", "line2": "2 64877  98.5798 318.7938 0001339  53.3725 306.7576 14.21444640 21412"}}, "geometry": {"type": "Point", "coordinates": [121.98135385252432, -62.95487070780014]}}, {"type": "Feature", "properties": {"norad_id": 64899, "name": "MICROCARB", "group": "resource", "lat": -53.56879801627937, "lon": -118.11030397512235, "alt_km": 668.0923562354956, "timestamp": "2025-12-23T16:57:12.003061+00:00", "meta": {"OBJECT_NAME": "MICROCARB", "OBJECT_ID": "2025-156A", "EPOCH": "2025-12-23T04:28:28.448832", "MEAN_MOTION": 14.72073334, "ECCENTRICITY": 0.00175884, "INCLINATION": 98.0012, "RA_OF_ASC_NODE": 72.3639, "ARG_OF_PERICENTER": 113.4217, "MEAN_ANOMALY": 246.8841, "EPHEMERIS_TYPE": 0, "CLASSIFICATION_TYPE": "U", "NORAD_CAT_ID": 64899, "ELEMENT_SET_NO": 999, "REV_AT_EPOCH": 2207, "BSTAR": 0.00011775886, "MEAN_MOTION_DOT": 6.92e-06, "MEAN_MOTION_DDOT": 0}, "tle": {"line1": "1 64899U 25156A   25357.18644038  .00000692  00000+0  11776-3 0  9992", "line2": "2 64899  98.0012  72.3639 0017588 113.4217 246.8841 14.72073334 22074"}}, "geometry": {"type": "Point", "coordinates": [-118.11030397512235, -53.56879801627937]}}, {"type": "Feature", "properties": {"norad_id": 64900, "name": "CO3D 3", "group": "resource", "lat": 12.477414170313978, "lon": 72.26081283740614, "alt_km": 506.07350480926834, "timestamp": "2025-12-23T16:57:12.003071+00:00", "meta": {"OBJECT_NAME": "CO3D 3", "OBJECT_ID": "2025-156B", "EPOCH": "2025-12-23T05:50:23.724960", "MEAN_MOTION": 15.20199974, "ECCENTRICITY": 0.00013216, "INCLINATION": 97.434, "RA_OF_ASC_NODE": 73.4601, "ARG_OF_PERICENTER": 73.2947, "MEAN_ANOMALY": 286.8433, "EPHEMERIS_TYPE": 0, "CLASSIFICATION_TYPE": "U", "NORAD_CAT_ID": 64900, "ELEMENT_SET_NO": 999, "REV_AT_EPOCH": 2280, "BSTAR": 0.00030508848, "MEAN_MOTION_DOT": 6.542e-05, "MEAN_MOTION_DDOT": 0}, "tle": {"line1": "1 64900U 25156B   25357.24333015  .00006542  00000+0  30509-3 0  9997", "line2": "2 64900  97.4340  73.4601 0001321  73.2947 286.8433 15.20199974 22801"}}, "geometry": {"type": "Point", "coordinates": [72.26081283740614, 12.477414170313978]}}, {"type": "Feature", "properties": {"norad_id": 64901, "name": "CO3D 4", "group": "resource", "lat": 11.743157933274972, "lon": 72.36113790257701, "alt_km": 507.3835786647842, "timestamp": "2025-12-23T16:57:12.003082+00:00", "meta": {"OBJECT_NAME": "CO3D 4", "OBJECT_ID": "2025-156C", "EPOCH": "2025-12-22T17:12:19.854144", "MEAN_MOTION": 15.20218181, "ECCENTRICITY": 0.00013582, "INCLINATION": 97.4339, "RA_OF_ASC_NODE": 72.9412, "ARG_OF_PERICENTER": 164.3046, "MEAN_ANOMALY": 195.8231, "EPHEMERIS_TYPE": 0, "CLASSIFICATION_TYPE": "U", "NORAD_CAT_ID": 64901, "ELEMENT_SET_NO": 999, "REV_AT_EPOCH": 2272, "BSTAR": 0.00027567855, "MEAN_MOTION_DOT": 5.908e-05, "MEAN_MOTION_DDOT": 0}, "tle": {"line1": "1 64901U 25156C   25356.71689646  .00005908  00000+0  27568-3 0  9999", "line2": "2 64901  97.4339  72.9412 0001358 164.3046 195.8231 15.20218181 22724"}}, "geometry": {"type": "Point", "coordinates": [72.36113790257701, 11.743157933274972]}}]}